[{"OBJECT_NAME":"THEA","OBJECT_ID":"2018-099AQ","EPOCH":"2026-03-09T22:33:02.658240","MEAN_MOTION":15.31454284,"ECCENTRICITY":0.00065849,"INCLINATION":97.4542,"RA_OF_ASC_NODE":137.8815,"ARG_OF_PERICENTER":275.4664,"MEAN_ANOMALY":84.5826,"EPHEMERIS_TYPE":0,"CLASSIFICATION_TYPE":"U","NORAD_CAT_ID":43796,"ELEMENT_SET_NO":999,"REV_AT_EPOCH":39748,"BSTAR":0.00074635274,"MEAN_MOTION_DOT":0.00022649,"MEAN_MOTION_DDOT":0},{"OBJECT_NAME":"STARLINK-32151","OBJECT_ID":"2024-132X","EPOCH":"2026-03-09T06:38:11.503392","MEAN_MOTION":15.30180538,"ECCENTRICITY":0.00011958,"INCLINATION":53.1616,"RA_OF_ASC_NODE":25.9023,"ARG_OF_PERICENTER":75.1928,"MEAN_ANOMALY":284.9205,"EPHEMERIS_TYPE":0,"CLASSIFICATION_TYPE":"U","NORAD_CAT_ID":60299,"ELEMENT_SET_NO":999,"REV_AT_EPOCH":9189,"BSTAR":3.2345062e-5,"MEAN_MOTION_DOT":5.98e-6,"MEAN_MOTION_DDOT":0}]
